[{"OBJECT_NAME":"STARLINK-4321","OBJECT_ID":"2022-077AR","EPOCH":"2026-03-09T10:53:42.751392","MEAN_MOTION":15.01260631,"ECCENTRICITY":0.00011762,"INCLINATION":97.6032,"RA_OF_ASC_NODE":249.989,"ARG_OF_PERICENTER":87.6483,"MEAN_ANOMALY":272.4876,"EPHEMERIS_TYPE":0,"CLASSIFICATION_TYPE":"U","NORAD_CAT_ID":53082,"ELEMENT_SET_NO":999,"REV_AT_EPOCH":20088,"BSTAR":5.0339452e-5,"MEAN_MOTION_DOT":5.88e-6,"MEAN_MOTION_DDOT":0},{"OBJECT_NAME":"QPS-SAR-12 (KUSHINADA-I)","OBJECT_ID":"2025-169A","EPOCH":"2026-03-09T10:50:23.327232","MEAN_MOTION":14.99881586,"ECCENTRICITY":0.00077939,"INCLINATION":42.0102,"RA_OF_ASC_NODE":204.8332,"ARG_OF_PERICENTER":277.3009,"MEAN_ANOMALY":82.6931,"EPHEMERIS_TYPE":0,"CLASSIFICATION_TYPE":"U","NORAD_CAT_ID":65116,"ELEMENT_SET_NO":999,"REV_AT_EPOCH":3243,"BSTAR":0.00057220088,"MEAN_MOTION_DOT":7.038e-5,"MEAN_MOTION_DDOT":0}]
