STARLINK-4321           
1 53082U 22077AR  26068.45396703  .00000588  00000+0  50339-4 0  9999
2 53082  97.6032 249.9890 0001176  87.6483 272.4876 15.01260631200888
QPS-SAR-12 (KUSHINADA-I)
1 65116U 25169A   26068.45165888  .00007038  00000+0  57220-3 0  9995
2 65116  42.0102 204.8332 0007793 277.3009  82.6931 14.99881586 32436
